HULIANWANG DIGUI-113    
1 66923U 25285J   26065.26385852 -.00000208  00000+0 -17997-3 0  9993
2 66923  50.0098 154.8014 0000086 315.0623  45.0243 13.29330610 12376
HULIANWANG DIGUI-114    
1 66953U 25287A   26065.24539260  .00000074  00000+0  13802-3 0  9990
2 66953  86.4972 317.1736 0001975  80.3773 279.7584 13.24415747 11715
HULIANWANG DIGUI-115    
1 66954U 25287B   26065.23782035  .00000066  00000+0  11858-3 0  9990
2 66954  86.4988 317.1853 0002053  79.4948 280.6418 13.24415863 11710
HULIANWANG DIGUI-116    
1 66955U 25287C   26065.23027345  .00000066  00000+0  11891-3 0  9994
2 66955  86.4928 317.1239 0002055  79.2056 280.9310 13.24415979 11715
HULIANWANG DIGUI-117    
1 66956U 25287D   26065.22275968  .00000057  00000+0  99541-4 0  9999
2 66956  86.4989 317.1786 0001214  20.5361 339.5821 13.24414118 11716
HULIANWANG DIGUI-118    
1 66957U 25287E   26065.21518792  .00000056  00000+0  96808-4 0  9996
2 66957  86.4965 317.1523 0002042  79.1703 280.9661 13.24415423 11711
HULIANWANG DIGUI-119    
1 67059U 25295A   26064.07196424 -.00000065  00000+0  10542-3 0  9997
2 67059  50.0045  40.1576 0000524 321.2380  38.8462 13.48505391 11637
HULIANWANG DIGUI-120    
1 67060U 25295B   26063.98456562 -.00000062  00000+0  10905-3 0  9990
2 67060  50.0059  40.3667 0000297 324.2577  35.8283 13.49182603 11620
HULIANWANG DIGUI-121    
1 67061U 25295C   26064.06563528 -.00000064  00000+0  10634-3 0  9993
2 67061  50.0011  40.0927 0000568 248.8697 111.2123 13.48677702 11631
HULIANWANG DIGUI-122    
1 67062U 25295D   26064.94100062 -.00000072  00000+0  93957-4 0  9990
2 67062  50.0351  36.7652 0008240 292.6630  67.3379 13.48227263 11755
HULIANWANG DIGUI-123    
1 67063U 25295E   26064.04460001 -.00000046  00000+0  13558-3 0  9993
2 67063  50.0044  40.0181 0000827 302.5802  57.4999 13.49170834 11632
HULIANWANG DIGUI-124    
1 67064U 25295F   26064.33469220 -.00000063  00000+0  10852-3 0  9991
2 67064  49.9659  38.8537 0003802 208.1973 151.8702 13.48752611 11671
HULIANWANG DIGUI-125    
1 67065U 25295G   26064.69852104 -.00000065  00000+0  10509-3 0  9999
2 67065  49.9968  37.4377 0002416  83.0342 277.0814 13.48906062 11724
HULIANWANG DIGUI-126    
1 67066U 25295H   26064.69129880 -.00000087  00000+0  69783-4 0  9991
2 67066  49.9978  37.4022 0002733  88.0846 272.0348 13.48895905 11729
HULIANWANG DIGUI-127    
1 67067U 25295J   26064.68092374 -.00000316  00000+0 -29580-3 0  9994
2 67067  50.0007  37.3603 0001661  74.0158 286.0906 13.48741481 11724
HULIANWANG DIGUI-128    
1 67236U 25311A   26065.11883891 -.00000049  00000+0  15506-3 0  9997
2 67236  50.0076 125.1989 0000898 210.1205 149.9617 13.32710750  9639
